OBJECT_NAME,OBJECT_ID,EPOCH,MEAN_MOTION,ECCENTRICITY,INCLINATION,RA_OF_ASC_NODE,ARG_OF_PERICENTER,MEAN_ANOMALY,EPHEMERIS_TYPE,CLASSIFICATION_TYPE,NORAD_CAT_ID,ELEMENT_SET_NO,REV_AT_EPOCH,BSTAR,MEAN_MOTION_DOT,MEAN_MOTION_DDOT
ICEYE-X33,2024-149CJ,2026-07-21T04:04:45.834816,15.00919464,.00018343,97.7379,281.1440,67.8627,292.2792,0,U,60548,999,10530,.25282916E-3,.316E-4,0
ICEYE-X40,2024-149CK,2026-07-21T04:02:34.259712,14.98101188,.00032719,97.6800,278.1192,347.2707,12.8432,0,U,60549,999,10516,.15315153E-3,.1755E-4,0
SATELIOT_1,2024-149CL,2026-07-21T03:46:04.537344,14.98181033,.00050508,97.6736,277.4893,334.7616,25.3359,0,U,60550,999,10515,.1621397E-3,.1865E-4,0
BRO-14,2024-149CM,2026-07-21T04:03:01.214784,14.96248794,.00062664,97.6863,277.3354,358.8468,1.2738,0,U,60551,999,10507,.9641304E-4,.1031E-4,0
SATELIOT_3,2024-149CN,2026-07-21T03:11:24.617184,14.98172553,.00044633,97.6805,278.2900,339.6719,20.4325,0,U,60552,999,10516,.9191043E-4,.1032E-4,0
BRO-15,2024-149CP,2026-07-21T03:38:11.683968,14.96228757,.00071168,97.6789,276.8884,345.2617,14.8396,0,U,60553,999,10508,.86466371E-4,.918E-5,0
UM5-RIBAT,2024-149CQ,2026-07-21T03:12:30.551616,15.01235042,.0000478,97.6593,279.4723,259.2387,100.8784,0,U,60554,999,10528,.12729006E-3,.1575E-4,0
UM5-EOSAT,2024-149CR,2026-07-21T03:44:04.684128,15.01753343,.0008843,97.6777,280.5141,19.7852,340.3714,0,U,60555,999,10531,.17277372E-3,.219E-4,0
LASARSAT,2024-247Q,2026-07-21T01:29:22.653600,15.48302336,.00082489,44.9738,71.5646,202.6776,157.3752,0,U,62391,999,8856,.50949715E-3,.27288E-3,0
CROCUBE,2024-247T,2026-07-21T00:21:52.789248,15.50495129,.00084626,44.9714,68.5662,208.9546,151.0877,0,U,62394,999,8859,.54332171E-3,.31509E-3,0
TEVEL2-4,2025-052D,2026-07-21T03:23:18.339072,15.35700911,.00030127,97.3852,98.6089,40.1902,319.9564,0,U,63213,999,7532,.41714681E-3,.14414E-3,0
TEVEL2-5,2025-052E,2026-07-21T03:58:35.141664,15.35512263,.00030159,97.3850,98.5711,42.3199,317.8277,0,U,63214,999,7532,.40482525E-3,.13901E-3,0
TEVEL2-6,2025-052F,2026-07-20T23:35:56.384736,15.35470217,.00031162,97.3855,98.3732,44.6176,315.5318,0,U,63215,999,7529,.40615668E-3,.13929E-3,0
TEVEL2-1,2025-052H,2026-07-20T23:01:26.909472,15.34894951,.00037459,97.3828,97.9321,47.7905,312.3656,0,U,63217,999,7527,.37939109E-3,.12768E-3,0
TEVEL2-3,2025-052J,2026-07-21T03:33:27.389088,15.34965852,.00035446,97.3837,98.1475,49.1326,311.0224,0,U,63218,999,7530,.40702792E-3,.13736E-3,0
TEVEL2-2,2025-052K,2026-07-20T23:01:34.302720,15.34907749,.00038298,97.3828,97.9353,47.8008,312.3560,0,U,63219,999,7527,.38821513E-3,.13073E-3,0
TEVEL2-9,2025-052AD,2026-07-20T06:19:12.067968,15.32827728,.00072091,97.3892,96.5399,42.4598,317.7200,0,U,63237,999,7509,.31277913E-3,.9848E-4,0
TEVEL2-7,2025-052AE,2026-07-21T03:49:57.011232,15.32531062,.00072173,97.3894,97.3362,40.1547,320.0227,0,U,63238,999,7522,.38802823E-3,.12126E-3,0
TEVEL2-8,2025-052AF,2026-07-21T04:02:18.216096,15.32516741,.00072622,97.3894,97.3210,40.9817,319.1970,0,U,63239,999,7522,.39070312E-3,.12205E-3,0
FORESAIL-1 PRIME,2025-276DS,2026-07-21T02:57:19.863648,15.18969690,.00023979,97.4183,274.7763,30.1699,329.9673,0,U,66778,999,3555,.15561619E-3,.3186E-4,0
